LITUANICASAT-2          
1 42768U 17036D   17324.24563722  .00003316  00000-0  15463-3 0  9997
2 42768  97.4319  21.9496 0017694  79.6247 280.6981 15.20432630 22807
LEMUR-2-SHAINAJOHL      
1 42771U 17036G   17324.10374129  .00002043  00000-0  96618-4 0  9995
2 42771  97.4315  21.8321 0016871  79.5570 280.7566 15.20407725 22725
LEMUR-2-XUENITERENCE    
1 42772U 17036H   17323.70436468  .00002684  00000-0  12578-3 0  9999
2 42772  97.4317  21.4483 0016540  80.4792 279.8311 15.20446671 22666
LEMUR-2-LUCYBRYCE       
1 42773U 17036J   17324.22079315  .00002869  00000-0  13350-3 0  9996
2 42773  97.4316  21.9819 0016269  78.7617 281.5446 15.20638262 22745
LEMUR-2-KUNGFOO         
1 42774U 17036K   17324.22425083  .00002390  00000-0  11212-3 0  9998
2 42774  97.4316  21.9809 0016258  78.5968 281.7093 15.20518184 22739
AALTO-1                 
1 42775U 17036L   17324.48864474  .00001510  00000-0  72410-4 0  9999
2 42775  97.4312  22.2333 0015998  76.6402 283.6615 15.20338872 22784
URSA MAIOR              
1 42776U 17036M   17324.22113547  .00001592  00000-0  76017-4 0  9997
2 42776  97.4316  21.9850 0015848  77.7690 282.5319 15.20395943 22741
COMPASS 2               
1 42777U 17036N   17324.11774130  .00002059  00000-0  95856-4 0  9998
2 42777  97.4328  21.9900 0014872  82.2618 278.0305 15.20965290 22729
LEMUR-2-LYNSEY-SYMO     
1 42779U 17036Q   17324.09522363  .00002291  00000-0  10544-3 0  9994
2 42779  97.4320  22.0038 0014428  88.2958 271.9930 15.21249083 22718
LEMUR-2-LISASAURUS      
1 42780U 17036R   17324.16344709  .00002024  00000-0  93803-4 0  9994
2 42780  97.4316  22.0597 0014346  87.8322 272.4556 15.21147702 22731
LEMUR-2-SAM-AMELIA      
1 42781U 17036S   17324.15673036  .00002226  00000-0  10246-3 0  9995
2 42781  97.4318  22.0672 0014230  88.4912 271.7954 15.21282438 22721
LEMUR-2-MCPEAKE         
1 42782U 17036T   17324.15373980  .00002212  00000-0  10174-3 0  9996
2 42782  97.4319  22.0750 0014091  88.0754 272.2096 15.21317638 22729
DIAMOND RED             
1 42783U 17036U   17323.70386997  .00001859  00000-0  86794-4 0  9997
2 42783  97.4315  21.6007 0014262  90.5614 269.7256 15.20997220 22661
PEGASUS                 
1 42784U 17036V   17323.76434593  .00002216  00000-0  10254-3 0  9995
2 42784  97.4316  21.6754 0014230  90.8598 269.4268 15.21097132 22676
DIAMOND GREEN           
1 42785U 17036W   17323.70296094  .00002003  00000-0  93291-4 0  9999
2 42785  97.4318  21.6063 0014164  91.0972 269.1886 15.20993640 22656
DIAMOND BLUE            
1 42786U 17036X   17323.70137241  .00001926  00000-0  89883-4 0  9993
2 42786  97.4318  21.6074 0013998  91.4706 268.8133 15.20971762 22665
NUDTSAT                 
1 42787U 17036Y   17324.46891120  .00002892  00000-0  13159-3 0  9996
2 42787  97.4316  22.4148 0013834  89.1188 271.1633 15.21434037 22620
SUCHAI                  
1 42788U 17036Z   17324.21273668  .00002209  00000-0  10173-3 0  9996
2 42788  97.4315  22.1439 0013856  89.6777 270.6046 15.21275253 22819
SKCUBE                  
1 42789U 17036AA  17323.74948287  .00002390  00000-0  10978-3 0  9994
2 42789  97.4315  21.6914 0013677  91.0304 269.2499 15.21280110 22663
VZLUSAT-1               
1 42790U 17036AB  17323.73874766  .00003075  00000-0  13959-3 0  9998
2 42790  97.4315  21.7021 0013364  91.5982 268.6784 15.21468543 22663
ROBUSTA-1B              
1 42792U 17036AD  17324.46044149  .00002215  00000-0  10160-3 0  9991
2 42792  97.4312  22.4169 0013242  89.8852 270.3901 15.21415596 22788
CICERO 6                
1 42793U 17036AE  17324.11773380  .00001348  00000-0  63006-4 0  9994
2 42793  97.4310  22.1074 0012324  91.6460 268.6187 15.21458502 22808
D-SAT                   
1 42794U 17036AF  17324.16629902  .00000530  00000-0  52202-4 0  9998
2 42794  97.6235  21.3675 0125961 257.3126 101.3987 14.90707154 22588
TOKI                    
1 42820U 98067MU  17324.49020567  .00017634  00000-0  22110-3 0  9996
2 42820  51.6378 336.2440 0003853  82.6143 277.5288 15.59829825 21201
GHANASAT-1              
1 42821U 98067MV  17324.30600995  .00017464  00000-0  22057-3 0  9997
2 42821  51.6381 337.2644 0003781  85.6156 274.5269 15.59645910 21151
MAZAALAI (NUMSAT-1)     
1 42822U 98067MW  17324.49791124  .00018026  00000-0  22693-3 0  9994
2 42822  51.6381 336.2967 0003735  87.3386 272.8035 15.59705839 21184
BRAC ONNESHA            
1 42823U 98067MX  17324.49982243  .00018127  00000-0  22799-3 0  9998
2 42823  51.6387 336.3142 0006233 114.2755 245.8890 15.59714688 21184
NIGERIAEDUSAT-1         
1 42824U 98067MY  17323.48060766  .00018956  00000-0  23929-3 0  9990
2 42824  51.6393 341.5099 0006078 111.2133 248.9509 15.59584146 21012
LEMUR-2-GREENBERG       
1 42837U 17042N   17323.77912040  .00001025  00000-0  10850-3 0  9999
2 42837  97.6078 228.9145 0013253 168.2628 191.8903 14.91200845 19141
LEMUR-2-ANDIS           
1 42838U 17042P   17323.71022974  .00001085  00000-0  11441-3 0  9995
2 42838  97.6078 228.8514 0013340 168.4272 191.7256 14.91219221 19132
LEMUR-2-MONSON          
1 42839U 17042Q   17324.30698973  .00000654  00000-0  71013-4 0  9993
2 42839  97.6078 229.4422 0013240 165.6968 194.4628 14.91262709 19220
LEMUR-2-FURIAUS         
1 42840U 17042R   17324.30254890  .00001081  00000-0  11368-3 0  9992
2 42840  97.6077 229.4467 0013195 166.0594 194.0992 14.91356319 19219
LEMUR-2-PETERG          
1 42841U 17042S   17324.29119902  .00001208  00000-0  12599-3 0  9993
2 42841  97.6078 229.4628 0012894 164.3902 195.7717 14.91487751 19228
LEMUR-2-DEMBITZ         
1 42842U 17042T   17323.81968675  .00001267  00000-0  13177-3 0  9998
2 42842  97.6077 229.0097 0012858 166.4949 193.6617 14.91507745 19152
LEMUR-2-ZACHARY         
1 42845U 17042W   17323.73426631  .00000999  00000-0  10456-3 0  9991
2 42845  97.6028 228.8840 0013073 171.4696 188.6748 14.91702688 19139
FLOCK 2K-03             
1 42850U 17042AB  17324.03654516  .00008252  00000-0  24689-3 0  9999
2 42850  96.9945 226.1904 0012119 142.3945 217.8149 15.34711431 19539
FLOCK 2K-04             
1 42851U 17042AC  17323.71410043  .00011649  00000-0  34726-3 0  9996
2 42851  96.9950 225.8802 0011825 144.8265 215.3762 15.34736711 19480
FLOCK 2K-01             
1 42852U 17042AD  17323.77750670  .00011370  00000-0  33892-3 0  9990
2 42852  96.9946 225.9421 0011697 143.3305 216.8742 15.34748685 19498
FLOCK 2K-02             
1 42853U 17042AE  17323.68749836  .00003464  00000-0  11011-3 0  9997
2 42853  96.9926 225.7729 0011379 144.2042 215.9994 15.33186024 19470
FLOCK 2K-47             
1 42854U 17042AF  17323.77411590  .00010673  00000-0  31890-3 0  9998
2 42854  96.9944 225.9443 0011542 141.4957 218.7113 15.34690164 19494
FLOCK 2K-48             
1 42855U 17042AG  17324.29427822  .00006120  00000-0  18391-3 0  9995
2 42855  96.9944 226.4457 0011638 140.0198 220.1905 15.34683383 19574
FLOCK 2K-45             
1 42856U 17042AH  17323.96658088  .00004419  00000-0  13342-3 0  9999
2 42856  96.9945 226.1353 0011705 140.2377 219.9727 15.34679122 19523
FLOCK 2K-24             
1 42857U 17042AJ  17323.96544793  .00008074  00000-0  24167-3 0  9995
2 42857  96.9947 226.1356 0011871 138.6281 221.5865 15.34708449 19525
FLOCK 2K-46             
1 42858U 17042AK  17323.96414140  .00004463  00000-0  13457-3 0  9996
2 42858  96.9948 226.1442 0011929 139.6321 220.5811 15.34713912 19524
FLOCK 2K-23             
1 42859U 17042AL  17324.22327790  .00004077  00000-0  12303-3 0  9991
2 42859  96.9947 226.3912 0011954 139.6069 220.6065 15.34737818 19562
FLOCK 2K-21             
1 42860U 17042AM  17323.96094955  .00004564  00000-0  13763-3 0  9999
2 42860  96.9950 226.1451 0011911 139.8097 220.4030 15.34700338 19523
FLOCK 2K-22             
1 42861U 17042AN  17324.23579543  .00008717  00000-0  26166-3 0  9997
2 42861  96.9954 226.3792 0011967 137.5227 222.6945 15.34593003 19561
FLOCK 2K-07             
1 42862U 17042AP  17324.22018203  .00008986  00000-0  26865-3 0  9992
2 42862  96.9949 226.3958 0012244 139.7428 220.4725 15.34710792 19575
FLOCK 2K-08             
1 42863U 17042AQ  17323.69581082  .00009406  00000-0  28110-3 0  9996
2 42863  96.9948 225.8992 0012159 142.0080 218.2024 15.34709020 19482
FLOCK 2K-05             
1 42864U 17042AR  17323.95813575  .00008994  00000-0  26846-3 0  9996
2 42864  96.9950 226.1492 0012287 139.9933 220.2218 15.34758949 19526
FLOCK 2K-40             
1 42865U 17042AS  17323.69436844  .00012720  00000-0  37895-3 0  9996
2 42865  96.9951 225.9062 0012170 141.9574 218.2532 15.34733951 19480
FLOCK 2K-39             
1 42866U 17042AT  17323.69293868  .00010706  00000-0  31943-3 0  9994
2 42866  96.9948 225.9050 0012196 141.4426 218.7692 15.34726290 19483
FLOCK 2K-37             
1 42867U 17042AU  17323.95236277  .00009395  00000-0  28067-3 0  9990
2 42867  96.9949 226.1560 0012189 141.1369 219.0754 15.34722245 19523
FLOCK 2K-38             
1 42868U 17042AV  17323.68849387  .00009933  00000-0  29681-3 0  9994
2 42868  96.9948 225.9124 0012140 141.3656 218.8459 15.34698472 19482
FLOCK 2K-31             
1 42869U 17042AW  17324.27354879  .00008432  00000-0  25230-3 0  9997
2 42869  96.9945 226.4694 0012313 137.9661 222.2530 15.34702145 19579
FLOCK 2K-32             
1 42870U 17042AX  17324.20694422  .00004846  00000-0  14567-3 0  9999
2 42870  96.9945 226.4098 0012357 138.5315 221.6869 15.34770159 19567
FLOCK 2K-29             
1 42871U 17042AY  17323.68389077  .00003874  00000-0  11707-3 0  9991
2 42871  96.9948 225.9192 0012439 139.5560 220.6611 15.34722087 19486
FLOCK 2K-30             
1 42872U 17042AZ  17323.68249747  .00003280  00000-0  99508-4 0  9998
2 42872  96.9947 225.9187 0012346 140.9251 219.2887 15.34706999 19472
FLOCK 2K-44             
1 42873U 17042BA  17324.20254725  .00007624  00000-0  22800-3 0  9996
2 42873  96.9946 226.4180 0013741 129.2117 231.0349 15.34729320 19560
